[Satellite]
VERSION=1.1
NAME=STARLINK-1366
NICKNAME=STARLINK-1366
TLE1=1 45569U 20025AQ  20141.58334491 -.00002572  00000-0 -22268-4 0  9995
TLE2=2 45569  52.9987 262.1697 0000953  88.7363 220.1658 15.62755013  5077
STATUS=0
